CCSDS_OMM_VERS = 2.0
CREATION_DATE  = 
ORIGINATOR     = 

OBJECT_NAME    = STARLINK-35405
OBJECT_ID      = 2025-259U
CENTER_NAME    = EARTH
REF_FRAME      = TEME
TIME_SYSTEM    = UTC
MEAN_ELEMENT_THEORY = SGP/SGP4

EPOCH          = 2025-12-09T04:00:01.998720
MEAN_MOTION    = 15.45997945
ECCENTRICITY   = .0001323
INCLINATION    = 43.0000
RA_OF_ASC_NODE = 68.1804
ARG_OF_PERICENTER = 276.0212
MEAN_ANOMALY   = 198.8460

EPHEMERIS_TYPE = 0
CLASSIFICATION_TYPE = U
NORAD_CAT_ID   = 66440
ELEMENT_SET_NO = 999
REV_AT_EPOCH   = 570
BSTAR          = -.45461E-1
MEAN_MOTION_DOT = -.2023411E-1
MEAN_MOTION_DDOT = 0

CCSDS_OMM_VERS = 2.0
CREATION_DATE  = 
ORIGINATOR     = 

OBJECT_NAME    = STARLINK-35426
OBJECT_ID      = 2025-259V
CENTER_NAME    = EARTH
REF_FRAME      = TEME
TIME_SYSTEM    = UTC
MEAN_ELEMENT_THEORY = SGP/SGP4

EPOCH          = 2025-12-08T13:33:01.912608
MEAN_MOTION    = 15.50516656
ECCENTRICITY   = .0004241
INCLINATION    = 43.0012
RA_OF_ASC_NODE = 71.6764
ARG_OF_PERICENTER = 306.6467
MEAN_ANOMALY   = 53.4003

EPHEMERIS_TYPE = 0
CLASSIFICATION_TYPE = U
NORAD_CAT_ID   = 66441
ELEMENT_SET_NO = 999
REV_AT_EPOCH   = 552
BSTAR          = .27132E-2
MEAN_MOTION_DOT = .161833E-2
MEAN_MOTION_DDOT = 0

CCSDS_OMM_VERS = 2.0
CREATION_DATE  = 
ORIGINATOR     = 

OBJECT_NAME    = STARLINK-34724
OBJECT_ID      = 2025-259W
CENTER_NAME    = EARTH
REF_FRAME      = TEME
TIME_SYSTEM    = UTC
MEAN_ELEMENT_THEORY = SGP/SGP4

EPOCH          = 2025-12-09T00:00:02.000160
MEAN_MOTION    = 15.49472751
ECCENTRICITY   = .00013126
INCLINATION    = 43.0009
RA_OF_ASC_NODE = 69.1254
ARG_OF_PERICENTER = 264.5323
MEAN_ANOMALY   = 10.4834

EPHEMERIS_TYPE = 0
CLASSIFICATION_TYPE = U
NORAD_CAT_ID   = 66442
ELEMENT_SET_NO = 999
REV_AT_EPOCH   = 567
BSTAR          = -.42422799E-1
MEAN_MOTION_DOT = -.2121366E-1
MEAN_MOTION_DDOT = 0

CCSDS_OMM_VERS = 2.0
CREATION_DATE  = 
ORIGINATOR     = 

OBJECT_NAME    = STARLINK-35219
OBJECT_ID      = 2025-259X
CENTER_NAME    = EARTH
REF_FRAME      = TEME
TIME_SYSTEM    = UTC
MEAN_ELEMENT_THEORY = SGP/SGP4

EPOCH          = 2025-12-08T22:48:33.716736
MEAN_MOTION    = 15.50624735
ECCENTRICITY   = .000096
INCLINATION    = 43.0000
RA_OF_ASC_NODE = 69.4110
ARG_OF_PERICENTER = 286.7645
MEAN_ANOMALY   = 73.3110

EPHEMERIS_TYPE = 0
CLASSIFICATION_TYPE = U
NORAD_CAT_ID   = 66443
ELEMENT_SET_NO = 999
REV_AT_EPOCH   = 547
BSTAR          = .17406E-2
MEAN_MOTION_DOT = .103295E-2
MEAN_MOTION_DDOT = 0

CCSDS_OMM_VERS = 2.0
CREATION_DATE  = 
ORIGINATOR     = 

OBJECT_NAME    = STARLINK-35360
OBJECT_ID      = 2025-259Y
CENTER_NAME    = EARTH
REF_FRAME      = TEME
TIME_SYSTEM    = UTC
MEAN_ELEMENT_THEORY = SGP/SGP4

EPOCH          = 2025-12-08T15:03:17.437824
MEAN_MOTION    = 15.50615761
ECCENTRICITY   = .0002256
INCLINATION    = 43.0012
RA_OF_ASC_NODE = 71.2839
ARG_OF_PERICENTER = 271.2736
MEAN_ANOMALY   = 88.7866

EPHEMERIS_TYPE = 0
CLASSIFICATION_TYPE = U
NORAD_CAT_ID   = 66444
ELEMENT_SET_NO = 999
REV_AT_EPOCH   = 553
BSTAR          = .19177E-2
MEAN_MOTION_DOT = .113963E-2
MEAN_MOTION_DDOT = 0

CCSDS_OMM_VERS = 2.0
CREATION_DATE  = 
ORIGINATOR     = 

OBJECT_NAME    = STARLINK-34698
OBJECT_ID      = 2025-259Z
CENTER_NAME    = EARTH
REF_FRAME      = TEME
TIME_SYSTEM    = UTC
MEAN_ELEMENT_THEORY = SGP/SGP4

EPOCH          = 2025-12-08T13:31:32.441088
MEAN_MOTION    = 15.50582419
ECCENTRICITY   = .0002429
INCLINATION    = 43.0056
RA_OF_ASC_NODE = 71.6672
ARG_OF_PERICENTER = 260.1314
MEAN_ANOMALY   = 99.9272

EPHEMERIS_TYPE = 0
CLASSIFICATION_TYPE = U
NORAD_CAT_ID   = 66445
ELEMENT_SET_NO = 999
REV_AT_EPOCH   = 541
BSTAR          = .15532E-2
MEAN_MOTION_DOT = .91866E-3
MEAN_MOTION_DDOT = 0

CCSDS_OMM_VERS = 2.0
CREATION_DATE  = 
ORIGINATOR     = 

OBJECT_NAME    = STARLINK-34986
OBJECT_ID      = 2025-259AA
CENTER_NAME    = EARTH
REF_FRAME      = TEME
TIME_SYSTEM    = UTC
MEAN_ELEMENT_THEORY = SGP/SGP4

EPOCH          = 2025-12-08T22:47:33.457056
MEAN_MOTION    = 15.50657569
ECCENTRICITY   = .0000981
INCLINATION    = 42.9984
RA_OF_ASC_NODE = 69.4048
ARG_OF_PERICENTER = 344.9284
MEAN_ANOMALY   = 15.1546

EPHEMERIS_TYPE = 0
CLASSIFICATION_TYPE = U
NORAD_CAT_ID   = 66446
ELEMENT_SET_NO = 999
REV_AT_EPOCH   = 558
BSTAR          = .21306E-2
MEAN_MOTION_DOT = .127053E-2
MEAN_MOTION_DDOT = 0

CCSDS_OMM_VERS = 2.0
CREATION_DATE  = 
ORIGINATOR     = 

OBJECT_NAME    = STARLINK-34851
OBJECT_ID      = 2025-259AB
CENTER_NAME    = EARTH
REF_FRAME      = TEME
TIME_SYSTEM    = UTC
MEAN_ELEMENT_THEORY = SGP/SGP4

EPOCH          = 2025-12-08T22:46:35.260608
MEAN_MOTION    = 15.50606148
ECCENTRICITY   = .0001046
INCLINATION    = 42.9997
RA_OF_ASC_NODE = 69.3985
ARG_OF_PERICENTER = 277.5852
MEAN_ANOMALY   = 82.4889

EPHEMERIS_TYPE = 0
CLASSIFICATION_TYPE = U
NORAD_CAT_ID   = 66447
ELEMENT_SET_NO = 999
REV_AT_EPOCH   = 547
BSTAR          = .1459E-2
MEAN_MOTION_DOT = .86281E-3
MEAN_MOTION_DDOT = 0

CCSDS_OMM_VERS = 2.0
CREATION_DATE  = 
ORIGINATOR     = 

OBJECT_NAME    = STARLINK-35355
OBJECT_ID      = 2025-259AC
CENTER_NAME    = EARTH
REF_FRAME      = TEME
TIME_SYSTEM    = UTC
MEAN_ELEMENT_THEORY = SGP/SGP4

EPOCH          = 2025-12-08T22:46:05.628864
MEAN_MOTION    = 15.50602449
ECCENTRICITY   = .0001124
INCLINATION    = 43.0007
RA_OF_ASC_NODE = 69.3957
ARG_OF_PERICENTER = 293.8629
MEAN_ANOMALY   = 66.2114

EPHEMERIS_TYPE = 0
CLASSIFICATION_TYPE = U
NORAD_CAT_ID   = 66448
ELEMENT_SET_NO = 999
REV_AT_EPOCH   = 558
BSTAR          = .14292E-2
MEAN_MOTION_DOT = .84482E-3
MEAN_MOTION_DDOT = 0

CCSDS_OMM_VERS = 2.0
CREATION_DATE  = 
ORIGINATOR     = 

OBJECT_NAME    = STARLINK-34720
OBJECT_ID      = 2025-259AD
CENTER_NAME    = EARTH
REF_FRAME      = TEME
TIME_SYSTEM    = UTC
MEAN_ELEMENT_THEORY = SGP/SGP4

EPOCH          = 2025-12-08T22:45:36.258048
MEAN_MOTION    = 15.50600010
ECCENTRICITY   = .0000625
INCLINATION    = 42.9998
RA_OF_ASC_NODE = 69.3926
ARG_OF_PERICENTER = 331.1257
MEAN_ANOMALY   = 28.9568

EPHEMERIS_TYPE = 0
CLASSIFICATION_TYPE = U
NORAD_CAT_ID   = 66449
ELEMENT_SET_NO = 999
REV_AT_EPOCH   = 547
BSTAR          = .14242E-2
MEAN_MOTION_DOT = .84172E-3
MEAN_MOTION_DDOT = 0

CCSDS_OMM_VERS = 2.0
CREATION_DATE  = 
ORIGINATOR     = 

OBJECT_NAME    = STARLINK-35334
OBJECT_ID      = 2025-259AE
CENTER_NAME    = EARTH
REF_FRAME      = TEME
TIME_SYSTEM    = UTC
MEAN_ELEMENT_THEORY = SGP/SGP4

EPOCH          = 2025-12-08T22:45:06.386112
MEAN_MOTION    = 15.50615981
ECCENTRICITY   = .0001305
INCLINATION    = 42.9969
RA_OF_ASC_NODE = 69.3883
ARG_OF_PERICENTER = 271.9278
MEAN_ANOMALY   = 88.1433

EPHEMERIS_TYPE = 0
CLASSIFICATION_TYPE = U
NORAD_CAT_ID   = 66450
ELEMENT_SET_NO = 999
REV_AT_EPOCH   = 558
BSTAR          = .20122E-2
MEAN_MOTION_DOT = .119681E-2
MEAN_MOTION_DDOT = 0

CCSDS_OMM_VERS = 2.0
CREATION_DATE  = 
ORIGINATOR     = 

OBJECT_NAME    = VIASAT-3 F2
OBJECT_ID      = 2025-261A
CENTER_NAME    = EARTH
REF_FRAME      = TEME
TIME_SYSTEM    = UTC
MEAN_ELEMENT_THEORY = SGP/SGP4

EPOCH          = 2025-12-06T17:04:58.090944
MEAN_MOTION    = 2.24196708
ECCENTRICITY   = .23030921
INCLINATION    = 5.5160
RA_OF_ASC_NODE = 292.8248
ARG_OF_PERICENTER = 186.8100
MEAN_ANOMALY   = 221.0538

EPHEMERIS_TYPE = 0
CLASSIFICATION_TYPE = U
NORAD_CAT_ID   = 66454
ELEMENT_SET_NO = 999
REV_AT_EPOCH   = 51
BSTAR          = 0
MEAN_MOTION_DOT = -.73E-6
MEAN_MOTION_DDOT = 0

